#dP2023  5 10 12  0  0.00000000      96 __u+U ITR00 EXT  IAC
## 2261 302400.00000000   900.00000000 60074 0.5000000000000
+  119   C06C07C08C09C10C11C12C13C14C16C19C20C21C22C23C24C25
+        C26C27C28C29C30C32C33C34C35C36C37C38C39C40C41C42C43
+        C44C45C46E02E03E04E05E07E08E09E10E11E12E13E14E15E18
+        E19E21E24E25E26E27E30E31E33E34E36G01G02G03G04G05G06
+        G07G08G09G10G11G12G13G14G15G16G17G18G19G20G21G22G23
+        G24G25G26G27G28G29G30G31G32J02J03J04R01R02R03R04R05
+        R07R08R09R11R12R13R14R15R16R17R18R19R20R21R22R24R25
++         9 10  9 10  9  8  8  8  9  8  9  8  9  9  8  7  8
++         8  7  8  9 10 10  9  8  8  8 10  9 10 11 10  7  7
++         7  9  9  7  6  7  8  7  8  8  7  7  7  7  7  6  8
++         7  7  8  7  7  7  8  7  7  6  8  7  6  8  6  7  8
++         7  7  7  7  8  8  7  8  6  7  7  8  7  7  6  8  8
++         7  8  8  7  8  7  7  7  7  8  8 10  9  7  8  7  7
++         8  9  9  8  8 10  8  8  7  8  7  8  9  8  8  8  8
%c M  cc GPS ccc cccc cccc cccc cccc ccccc ccccc ccccc ccccc
%c cc cc ccc ccc cccc cccc cccc cccc ccccc ccccc ccccc ccccc
%f  0.0000000  0.000000000  0.00000000000  0.000000000000000
%f  0.0000000  0.000000000  0.00000000000  0.000000000000000
%i    0    0    0    0      0      0      0      0         0
%i    0    0    0    0      0      0      0      0         0
/* IAC                                ULTRA-RAPID PREDICTION
/* S/V CLOCKS ARE ALIGNED TO GNSS TIME                      
/* G:C1WC2W R:C1PC2P E:C1XC5X C:C2IC6I J:C1CC2S             
/* PCV:IGS20_2247 OL/AL:FES2004  NONE     YN ORB:CoN CLK:CoN
*  2023 05 11 11 45  0.00000000
PC06 -17229.687501  36566.009203 -12444.053505   -192.317499
PC07  -3635.409302  34549.977316 -23734.726937     -2.446076
PC08  -9962.168125  19273.850655  36130.399999    487.827729
PC09 -10823.823262  35216.792573 -20573.043155    666.509524
PC10   4021.637917  37538.995543 -17950.948303    -55.559300
PC11 -13589.340073  24330.091497  -1213.830540    613.294052
PC12 -18636.103186  11289.571551 -17402.356502    631.434169
PC13  -1515.869130  21975.631607  36108.995149    272.170226
PC14  -4547.649705  18266.983562  20600.455197    244.139125
PC16 -20065.678482  36130.091629  -8881.048189     81.958144
PC19  -3891.398993 -23372.173530 -14735.674246   -909.042585
PC20  10735.414572 -11853.982990 -22854.994866    574.604281
PC21 -20063.926354  -7863.129680  17767.582617   -914.044719
PC22 -16981.177378 -22050.563844   2279.780252   -493.629102
PC23  15566.414539  12782.769474 -19308.956187   -925.832922
PC24 -23322.982495  10091.017929 -11517.919007    -67.396208
PC25  -3997.549885  16434.785075 -22201.770164    124.302731
PC26 -27525.108852   -473.868901   4448.943448   -118.761158
PC27  17738.827556  -2306.905262  21390.762412    138.552377
PC28   8857.673383  15632.719458  21350.833649    102.436055
PC29   5624.843467 -26169.835627  -7894.519637    118.885654
PC30  16697.595613 -19850.308691  10249.063887     -0.191751
PC32  20115.946360   7757.342295 -17687.985196   -564.131630
PC33   3880.015797  23300.860244  14848.645231   -880.539639
PC34 -16306.853061  20758.925409  -9103.674589    168.258186
PC35  -9003.127181 -15977.195914 -21038.575416    629.622861
PC36   5252.017761 -16301.821333  22055.568743   -448.278217
PC37  27287.157418   1906.132537  -5568.725264   -784.602814
PC38 -18865.130712  19526.464056  32254.927958     77.604271
PC39 -21373.707268  36331.609261  -3342.263976     -2.913082
PC40  -6650.732903  31253.372158 -27402.788495    -22.897039
PC41  16694.719854  22295.835770  -1536.864186   -947.667902
PC42 -11808.199112  10598.791823  23002.353356   -696.929750
PC43  -6292.492939  26262.299518   7066.013099     20.863360
PC44 -17746.691111   2723.712311 -21389.106184    103.189719
PC45 -15986.042353 -12500.460365  19147.411172    -96.210817
PC46  22337.075508 -10795.638730  12811.730412    -53.260472
PE02   6969.906002  19800.974559 -20880.192128     37.473451
PE03      0.000000      0.000000      0.000000   -677.459912
PE04 -13537.798825 -19276.056529  17942.156325   -119.902014
PE05 -10331.176324  22524.634988  16196.384941    -68.514491
PE07  16909.402693  -2240.213206 -24179.255398    -44.255743
PE08  13336.157191  19508.965071 -17808.912197    -81.330549
PE09 -16790.429482   2025.830173  24302.090050    -10.925915
PE10 -22421.710874   -281.611448 -19335.782733   -532.935390
PE11 -26181.871290   8317.825003 -11064.787051   1890.108459
PE12 -15642.484012  -8222.071114 -23759.240845   -534.102812
PE13  26011.462001  -7785.707349  11771.292966    -19.148437
PE14 -16320.447034  13637.208550 -18578.355732    222.017458
PE15  15289.589113   8417.635085  23903.982022    -20.982603
PE18   7583.312030 -27732.384643   6708.922636     51.215956
PE19   -585.737525 -29576.457914  -1026.866985  -2559.714370
PE21  12752.834227 -11859.055607  23931.982660   -528.487547
PE24 -26428.223607  -3982.954899 -12716.773599    -92.746824
PE25 -13075.191993  11639.911354 -23865.739827   -604.891370
PE26  20876.995212 -19476.573661  -7803.349726    100.975807
PE27  26225.883365   3354.426927  13316.405584    -46.772825
PE30  23743.784556  16791.330846  -5564.747926   -164.056740
PE31 -24101.517483 -16429.667344   5033.887934   -523.523587
PE33   4349.635044 -19508.155416 -21830.213193   -444.631879
PE34  -4174.847016  19473.265440  21886.793251    -44.853934
PE36 -21376.537654  19219.650054   7086.442778    -54.486441
PG01   6810.466222 -17828.719805 -18646.550886    186.160397
PG02  23120.012117  -5983.814381  12047.295321   -597.339397
PG03  -4373.791171 -17644.640410 -19537.409749   -306.452007
PG04    153.076513 -26481.579535    942.112380     38.647399
PG05 -12649.149219   9845.145901  21025.265859   -126.785720
PG06 -22802.079484   2911.235316 -13332.140427    588.102493
PG07  -9216.889589 -12730.817509  21885.782451    180.894394
PG08   7036.345811 -22870.851786  11019.713293   -121.895204
PG09  -7973.303435 -23031.682833  10432.042233   -161.281459
PG10  24078.509336  11008.226550  -3495.061746    -36.479499
PG11 -23424.927123  12468.855972    484.661963   -192.922494
PG12    254.316927  17232.216331 -20511.787346   -374.688401
PG13 -12971.136202  17026.198568  15416.215717    518.367422
PG14 -23049.045230 -13323.446438  -1001.559299     53.176418
PG15  -4006.826027  23958.669964   9968.904006     38.526639
PG16  16415.829533  -5422.646152  19981.968200   -501.965737
PG17 -13033.956155 -10685.351838 -20074.140706    714.360222
PG18  11898.580942  10101.963154  21509.372423   -261.695183
PG19 -14991.192887  -1298.210113 -22109.678359    315.402950
PG20 -20093.591146   5223.657640  16491.082686    434.169968
PG21  14020.161541 -18992.888551 -10707.255645    153.863984
PG22  15060.116867  -2910.880848 -21215.971369    479.435492
PG23  19275.474476  16519.780711   8075.604623     23.310947
PG24  -9408.998415  20013.251510 -14756.226515   -184.691158
PG25  12456.867113  18772.388227 -14589.832943    442.017389
PG26  23940.499084   2134.690864  11550.558776    240.914453
PG27  12700.857364 -13535.800401  18584.639268     39.828646
PG28  22039.114141  -1731.102526 -14741.810282     76.476044
PG29   3621.155818  24999.641986   8010.143263   -599.019495
PG30 -19015.199657  -4589.894708  18191.812611   -517.817635
PG31  24643.716145  -8815.461182  -5937.354338   -215.892852
PG32  14632.172570   7474.137231 -20728.249921   -473.819492
PJ02 -25118.551974  16933.189805 -24688.837082      0.054414
PJ03 -27573.438157  31791.510088   1146.138814      3.904261
PJ04 -26729.509782  25775.599212  25986.995564     94.468079
PR01  14398.392513  17800.913266 -11223.203535     57.274391
PR02  12035.517484   1351.571019 -22408.729428    -22.868583
PR03   3233.795229 -15719.050124 -19756.801961     77.608766
PR04  -7108.936749 -23666.288613  -6276.076091    186.736829
PR05 -13524.026424 -18827.525525  10638.722683    112.359398
PR07  -2755.989256  16409.817457  19396.529379     55.672712
PR08   7259.677985  23681.953436   6216.369580    -70.725426
PR09 -24848.346224    944.489127  -5852.151924    119.538568
PR11   3714.926789  11115.493874 -22644.034495    -53.601322
PR12  21327.024724   7732.608486 -11652.987905     27.155883
PR13  25185.579555    291.672125   4020.002114    -34.938718
PR14  13851.794800  -8315.005392  19743.565342     24.645957
PR15  -4967.061021 -11291.245324  22346.330975     89.377103
PR16 -21186.373169  -7631.568976  12024.230247     14.420392
PR17  15139.785492 -20552.562983    -48.078916    628.979974
PR18   5705.015163 -19279.371331 -15654.406564     80.953937
PR19  -5476.631479  -9537.735885 -23021.189378   -232.231366
PR20 -16859.716056   9030.426509 -16901.803480    -92.694811
PR21 -14654.154766  20801.135802   1626.128926     -6.647882
PR22  -5462.794945  18928.856109  16234.358623     81.775645
PR24  16944.803966  -9885.300879  16320.206838    169.340659
PR25 -16114.085849  19762.783441   -116.400066     60.856895
EOF
